[
    {
        "Altitude(m)": 607911.0253084985,
        "Argument of Periapsis(deg)": 0.0,
        "Eccentricity": 0.0,
        "Inclination(deg)": 60.0,
        "Latitude(deg)": -14.29303596507486,
        "Longitude(deg)": -96.55735399236035,
        "Mean Anomaly(deg)": -163.6364,
        "RAAN(deg)": 175.0,
        "Satellite Name": "Test1 782",
        "Satellite Number": 782,
        "Semi-Major Axis(m)": 6980739.136638005,
        "Time(s)": 0
    },
    {
        "Altitude(m)": 608060.259461627,
        "Argument of Periapsis(deg)": 0.00010418945913296404,
        "Eccentricity": 0.0,
        "Inclination(deg)": 60.0,
        "Latitude(deg)": -14.826697390983673,
        "Longitude(deg)": -96.26874449035876,
        "Mean Anomaly(deg)": -163.01629385453816,
        "RAAN(deg)": 174.99957995086024,
        "Satellite Name": "Test1 782",
        "Satellite Number": 782,
        "Semi-Major Axis(m)": 6980739.136638005,
        "Time(s)": 10
    }
]